{
"type": "FeatureCollection",
"name": "centroids_0_6.geojson",
"crs": { "type": "name", "properties": { "name": "urn:ogc:def:crs:OGC:1.3:CRS84" } },
"features": [
{ "type": "Feature", "properties": { "sensor": "MODIS_C6.1", "description": "<b>Latitude: </b> 66.19868<br/> \n                    <b>Longitude: </b> 70.99308<br/> \n                    <b>Detection Time: </b> 2026-10-03 15:05 UTC<br/> \n                    <b>Sensor: </b> Terra MODIS<br/>\n                    <b>Confidence [0-100%]: </b> 51%<br/> \n                    <b>Day/Night: </b> Night<br/>\n                    <b>Scan: </b> 1.17 km<br/>\n                    <b>Track: </b> 1.08 km<br/>\n                    <b>FRP: </b> 14.47 MW<br/>\n                    <b>Brightness: </b> 302.81 K" }, "geometry": { "type": "Point", "coordinates": [ 70.99308, 66.19868 ] } },
{ "type": "Feature", "properties": { "sensor": "SUOMI-NPP", "description": "<b>Latitude: </b> 46.62918<br/> \n                    <b>Longitude: </b> 142.91254<br/> \n                    <b>Detection Time: </b> 2026-10-03 16:52 UTC<br/> \n                    <b>Sensor: </b> Suomi-NPP VIIRS<br/>\n                    <b>Confidence: </b> Nominal<br/> \n                    <b>Day/Night: </b> Night<br/>\n                    <b>Scan: </b> 0.4 km<br/>\n                    <b>Track: </b> 0.37 km<br/>\n                    <b>FRP: </b> 2.09 MW<br/>\n                    <b>Brightness: </b> 308.34 K" }, "geometry": { "type": "Point", "coordinates": [ 142.91254, 46.62918 ] } },
{ "type": "Feature", "properties": { "sensor": "SUOMI-NPP", "description": "<b>Latitude: </b> 46.62677<br/> \n                    <b>Longitude: </b> 142.9062<br/> \n                    <b>Detection Time: </b> 2026-10-03 16:52 UTC<br/> \n                    <b>Sensor: </b> Suomi-NPP VIIRS<br/>\n                    <b>Confidence: </b> Nominal<br/> \n                    <b>Day/Night: </b> Night<br/>\n                    <b>Scan: </b> 0.4 km<br/>\n                    <b>Track: </b> 0.37 km<br/>\n                    <b>FRP: </b> 1.95 MW<br/>\n                    <b>Brightness: </b> 317.65 K" }, "geometry": { "type": "Point", "coordinates": [ 142.9062, 46.62677 ] } },
{ "type": "Feature", "properties": { "sensor": "SUOMI-NPP", "description": "<b>Latitude: </b> 44.53478<br/> \n                    <b>Longitude: </b> 132.75456<br/> \n                    <b>Detection Time: </b> 2026-10-03 16:52 UTC<br/> \n                    <b>Sensor: </b> Suomi-NPP VIIRS<br/>\n                    <b>Confidence: </b> Nominal<br/> \n                    <b>Day/Night: </b> Night<br/>\n                    <b>Scan: </b> 0.4 km<br/>\n                    <b>Track: </b> 0.44 km<br/>\n                    <b>FRP: </b> 1.01 MW<br/>\n                    <b>Brightness: </b> 299.25 K" }, "geometry": { "type": "Point", "coordinates": [ 132.75456, 44.53478 ] } },
{ "type": "Feature", "properties": { "sensor": "SUOMI-NPP", "description": "<b>Latitude: </b> 51.39753<br/> \n                    <b>Longitude: </b> 143.25031<br/> \n                    <b>Detection Time: </b> 2026-10-03 16:50 UTC<br/> \n                    <b>Sensor: </b> Suomi-NPP VIIRS<br/>\n                    <b>Confidence: </b> Nominal<br/> \n                    <b>Day/Night: </b> Night<br/>\n                    <b>Scan: </b> 0.38 km<br/>\n                    <b>Track: </b> 0.36 km<br/>\n                    <b>FRP: </b> 0.94 MW<br/>\n                    <b>Brightness: </b> 311.31 K" }, "geometry": { "type": "Point", "coordinates": [ 143.25031, 51.39753 ] } },
{ "type": "Feature", "properties": { "sensor": "SUOMI-NPP", "description": "<b>Latitude: </b> 53.20544<br/> \n                    <b>Longitude: </b> 143.23882<br/> \n                    <b>Detection Time: </b> 2026-10-03 16:50 UTC<br/> \n                    <b>Sensor: </b> Suomi-NPP VIIRS<br/>\n                    <b>Confidence: </b> Nominal<br/> \n                    <b>Day/Night: </b> Night<br/>\n                    <b>Scan: </b> 0.38 km<br/>\n                    <b>Track: </b> 0.36 km<br/>\n                    <b>FRP: </b> 3.56 MW<br/>\n                    <b>Brightness: </b> 326.74 K" }, "geometry": { "type": "Point", "coordinates": [ 143.23882, 53.20544 ] } },
{ "type": "Feature", "properties": { "sensor": "SUOMI-NPP", "description": "<b>Latitude: </b> 53.20219<br/> \n                    <b>Longitude: </b> 143.23743<br/> \n                    <b>Detection Time: </b> 2026-10-03 16:50 UTC<br/> \n                    <b>Sensor: </b> Suomi-NPP VIIRS<br/>\n                    <b>Confidence: </b> Nominal<br/> \n                    <b>Day/Night: </b> Night<br/>\n                    <b>Scan: </b> 0.38 km<br/>\n                    <b>Track: </b> 0.36 km<br/>\n                    <b>FRP: </b> 1.67 MW<br/>\n                    <b>Brightness: </b> 314.27 K" }, "geometry": { "type": "Point", "coordinates": [ 143.23743, 53.20219 ] } },
{ "type": "Feature", "properties": { "sensor": "SUOMI-NPP", "description": "<b>Latitude: </b> 52.51374<br/> \n                    <b>Longitude: </b> 143.18323<br/> \n                    <b>Detection Time: </b> 2026-10-03 16:50 UTC<br/> \n                    <b>Sensor: </b> Suomi-NPP VIIRS<br/>\n                    <b>Confidence: </b> Nominal<br/> \n                    <b>Day/Night: </b> Night<br/>\n                    <b>Scan: </b> 0.38 km<br/>\n                    <b>Track: </b> 0.36 km<br/>\n                    <b>FRP: </b> 0.59 MW<br/>\n                    <b>Brightness: </b> 315.41 K" }, "geometry": { "type": "Point", "coordinates": [ 143.18323, 52.51374 ] } },
{ "type": "Feature", "properties": { "sensor": "SUOMI-NPP", "description": "<b>Latitude: </b> 52.18559<br/> \n                    <b>Longitude: </b> 143.06671<br/> \n                    <b>Detection Time: </b> 2026-10-03 16:50 UTC<br/> \n                    <b>Sensor: </b> Suomi-NPP VIIRS<br/>\n                    <b>Confidence: </b> Nominal<br/> \n                    <b>Day/Night: </b> Night<br/>\n                    <b>Scan: </b> 0.38 km<br/>\n                    <b>Track: </b> 0.36 km<br/>\n                    <b>FRP: </b> 1.44 MW<br/>\n                    <b>Brightness: </b> 318.81 K" }, "geometry": { "type": "Point", "coordinates": [ 143.06671, 52.18559 ] } },
{ "type": "Feature", "properties": { "sensor": "SUOMI-NPP", "description": "<b>Latitude: </b> 52.13899<br/> \n                    <b>Longitude: </b> 143.01688<br/> \n                    <b>Detection Time: </b> 2026-10-03 16:50 UTC<br/> \n                    <b>Sensor: </b> Suomi-NPP VIIRS<br/>\n                    <b>Confidence: </b> Nominal<br/> \n                    <b>Day/Night: </b> Night<br/>\n                    <b>Scan: </b> 0.38 km<br/>\n                    <b>Track: </b> 0.36 km<br/>\n                    <b>FRP: </b> 0.94 MW<br/>\n                    <b>Brightness: </b> 309.24 K" }, "geometry": { "type": "Point", "coordinates": [ 143.01688, 52.13899 ] } },
{ "type": "Feature", "properties": { "sensor": "SUOMI-NPP", "description": "<b>Latitude: </b> 53.26578<br/> \n                    <b>Longitude: </b> 143.22314<br/> \n                    <b>Detection Time: </b> 2026-10-03 16:50 UTC<br/> \n                    <b>Sensor: </b> Suomi-NPP VIIRS<br/>\n                    <b>Confidence: </b> Nominal<br/> \n                    <b>Day/Night: </b> Night<br/>\n                    <b>Scan: </b> 0.38 km<br/>\n                    <b>Track: </b> 0.36 km<br/>\n                    <b>FRP: </b> 1.08 MW<br/>\n                    <b>Brightness: </b> 319.79 K" }, "geometry": { "type": "Point", "coordinates": [ 143.22314, 53.26578 ] } },
{ "type": "Feature", "properties": { "sensor": "SUOMI-NPP", "description": "<b>Latitude: </b> 53.26252<br/> \n                    <b>Longitude: </b> 143.22173<br/> \n                    <b>Detection Time: </b> 2026-10-03 16:50 UTC<br/> \n                    <b>Sensor: </b> Suomi-NPP VIIRS<br/>\n                    <b>Confidence: </b> Nominal<br/> \n                    <b>Day/Night: </b> Night<br/>\n                    <b>Scan: </b> 0.38 km<br/>\n                    <b>Track: </b> 0.36 km<br/>\n                    <b>FRP: </b> 1.08 MW<br/>\n                    <b>Brightness: </b> 295.24 K" }, "geometry": { "type": "Point", "coordinates": [ 143.22173, 53.26252 ] } },
{ "type": "Feature", "properties": { "sensor": "SUOMI-NPP", "description": "<b>Latitude: </b> 63.87174<br/> \n                    <b>Longitude: </b> 122.69479<br/> \n                    <b>Detection Time: </b> 2026-10-03 16:48 UTC<br/> \n                    <b>Sensor: </b> Suomi-NPP VIIRS<br/>\n                    <b>Confidence: </b> Nominal<br/> \n                    <b>Day/Night: </b> Night<br/>\n                    <b>Scan: </b> 0.61 km<br/>\n                    <b>Track: </b> 0.71 km<br/>\n                    <b>FRP: </b> 1.63 MW<br/>\n                    <b>Brightness: </b> 297.28 K" }, "geometry": { "type": "Point", "coordinates": [ 122.69479, 63.87174 ] } },
{ "type": "Feature", "properties": { "sensor": "SUOMI-NPP", "description": "<b>Latitude: </b> 63.87048<br/> \n                    <b>Longitude: </b> 122.69964<br/> \n                    <b>Detection Time: </b> 2026-10-03 16:48 UTC<br/> \n                    <b>Sensor: </b> Suomi-NPP VIIRS<br/>\n                    <b>Confidence: </b> Nominal<br/> \n                    <b>Day/Night: </b> Night<br/>\n                    <b>Scan: </b> 0.61 km<br/>\n                    <b>Track: </b> 0.71 km<br/>\n                    <b>FRP: </b> 2.06 MW<br/>\n                    <b>Brightness: </b> 315.94 K" }, "geometry": { "type": "Point", "coordinates": [ 122.69964, 63.87048 ] } },
{ "type": "Feature", "properties": { "sensor": "NOAA-20", "description": "<b>Latitude: </b> 44.53721<br/> \n                    <b>Longitude: </b> 132.75414<br/> \n                    <b>Detection Time: </b> 2026-10-03 17:11 UTC<br/> \n                    <b>Sensor: </b> NOAA-20 VIIRS<br/>\n                    <b>Confidence: </b> Nominal<br/> \n                    <b>Day/Night: </b> Night<br/>\n                    <b>Scan: </b> 0.39 km<br/>\n                    <b>Track: </b> 0.36 km<br/>\n                    <b>FRP: </b> 1.12 MW<br/>\n                    <b>Brightness: </b> 299.78 K" }, "geometry": { "type": "Point", "coordinates": [ 132.75414, 44.53721 ] } },
{ "type": "Feature", "properties": { "sensor": "NOAA-20", "description": "<b>Latitude: </b> 46.62946<br/> \n                    <b>Longitude: </b> 142.90869<br/> \n                    <b>Detection Time: </b> 2026-10-03 17:11 UTC<br/> \n                    <b>Sensor: </b> NOAA-20 VIIRS<br/>\n                    <b>Confidence: </b> Nominal<br/> \n                    <b>Day/Night: </b> Night<br/>\n                    <b>Scan: </b> 0.44 km<br/>\n                    <b>Track: </b> 0.46 km<br/>\n                    <b>FRP: </b> 1.63 MW<br/>\n                    <b>Brightness: </b> 306.86 K" }, "geometry": { "type": "Point", "coordinates": [ 142.90869, 46.62946 ] } },
{ "type": "Feature", "properties": { "sensor": "NOAA-20", "description": "<b>Latitude: </b> 52.14043<br/> \n                    <b>Longitude: </b> 143.01518<br/> \n                    <b>Detection Time: </b> 2026-10-03 17:09 UTC<br/> \n                    <b>Sensor: </b> NOAA-20 VIIRS<br/>\n                    <b>Confidence: </b> Nominal<br/> \n                    <b>Day/Night: </b> Night<br/>\n                    <b>Scan: </b> 0.5 km<br/>\n                    <b>Track: </b> 0.41 km<br/>\n                    <b>FRP: </b> 1.39 MW<br/>\n                    <b>Brightness: </b> 311.51 K" }, "geometry": { "type": "Point", "coordinates": [ 143.01518, 52.14043 ] } },
{ "type": "Feature", "properties": { "sensor": "NOAA-20", "description": "<b>Latitude: </b> 52.1392<br/> \n                    <b>Longitude: </b> 143.0145<br/> \n                    <b>Detection Time: </b> 2026-10-03 17:09 UTC<br/> \n                    <b>Sensor: </b> NOAA-20 VIIRS<br/>\n                    <b>Confidence: </b> Nominal<br/> \n                    <b>Day/Night: </b> Night<br/>\n                    <b>Scan: </b> 0.5 km<br/>\n                    <b>Track: </b> 0.41 km<br/>\n                    <b>FRP: </b> 1.53 MW<br/>\n                    <b>Brightness: </b> 308.8 K" }, "geometry": { "type": "Point", "coordinates": [ 143.0145, 52.1392 ] } },
{ "type": "Feature", "properties": { "sensor": "NOAA-20", "description": "<b>Latitude: </b> 53.26294<br/> \n                    <b>Longitude: </b> 143.22319<br/> \n                    <b>Detection Time: </b> 2026-10-03 17:09 UTC<br/> \n                    <b>Sensor: </b> NOAA-20 VIIRS<br/>\n                    <b>Confidence: </b> Nominal<br/> \n                    <b>Day/Night: </b> Night<br/>\n                    <b>Scan: </b> 0.48 km<br/>\n                    <b>Track: </b> 0.4 km<br/>\n                    <b>FRP: </b> 2.02 MW<br/>\n                    <b>Brightness: </b> 319.49 K" }, "geometry": { "type": "Point", "coordinates": [ 143.22319, 53.26294 ] } },
{ "type": "Feature", "properties": { "sensor": "NOAA-20", "description": "<b>Latitude: </b> 53.20433<br/> \n                    <b>Longitude: </b> 143.24263<br/> \n                    <b>Detection Time: </b> 2026-10-03 17:09 UTC<br/> \n                    <b>Sensor: </b> NOAA-20 VIIRS<br/>\n                    <b>Confidence: </b> Nominal<br/> \n                    <b>Day/Night: </b> Night<br/>\n                    <b>Scan: </b> 0.48 km<br/>\n                    <b>Track: </b> 0.4 km<br/>\n                    <b>FRP: </b> 2.82 MW<br/>\n                    <b>Brightness: </b> 325.73 K" }, "geometry": { "type": "Point", "coordinates": [ 143.24263, 53.20433 ] } },
{ "type": "Feature", "properties": { "sensor": "NOAA-20", "description": "<b>Latitude: </b> 53.96036<br/> \n                    <b>Longitude: </b> 137.62904<br/> \n                    <b>Detection Time: </b> 2026-10-03 17:09 UTC<br/> \n                    <b>Sensor: </b> NOAA-20 VIIRS<br/>\n                    <b>Confidence: </b> Nominal<br/> \n                    <b>Day/Night: </b> Night<br/>\n                    <b>Scan: </b> 0.38 km<br/>\n                    <b>Track: </b> 0.36 km<br/>\n                    <b>FRP: </b> 1.47 MW<br/>\n                    <b>Brightness: </b> 311.65 K" }, "geometry": { "type": "Point", "coordinates": [ 137.62904, 53.96036 ] } },
{ "type": "Feature", "properties": { "sensor": "NOAA-20", "description": "<b>Latitude: </b> 52.51269<br/> \n                    <b>Longitude: </b> 143.18152<br/> \n                    <b>Detection Time: </b> 2026-10-03 17:09 UTC<br/> \n                    <b>Sensor: </b> NOAA-20 VIIRS<br/>\n                    <b>Confidence: </b> Nominal<br/> \n                    <b>Day/Night: </b> Night<br/>\n                    <b>Scan: </b> 0.5 km<br/>\n                    <b>Track: </b> 0.41 km<br/>\n                    <b>FRP: </b> 1.85 MW<br/>\n                    <b>Brightness: </b> 314.51 K" }, "geometry": { "type": "Point", "coordinates": [ 143.18152, 52.51269 ] } },
{ "type": "Feature", "properties": { "sensor": "NOAA-20", "description": "<b>Latitude: </b> 52.18568<br/> \n                    <b>Longitude: </b> 143.06493<br/> \n                    <b>Detection Time: </b> 2026-10-03 17:09 UTC<br/> \n                    <b>Sensor: </b> NOAA-20 VIIRS<br/>\n                    <b>Confidence: </b> Nominal<br/> \n                    <b>Day/Night: </b> Night<br/>\n                    <b>Scan: </b> 0.5 km<br/>\n                    <b>Track: </b> 0.41 km<br/>\n                    <b>FRP: </b> 1.16 MW<br/>\n                    <b>Brightness: </b> 308.19 K" }, "geometry": { "type": "Point", "coordinates": [ 143.06493, 52.18568 ] } },
{ "type": "Feature", "properties": { "sensor": "NOAA-20", "description": "<b>Latitude: </b> 63.86881<br/> \n                    <b>Longitude: </b> 122.69881<br/> \n                    <b>Detection Time: </b> 2026-10-03 17:07 UTC<br/> \n                    <b>Sensor: </b> NOAA-20 VIIRS<br/>\n                    <b>Confidence: </b> Nominal<br/> \n                    <b>Day/Night: </b> Night<br/>\n                    <b>Scan: </b> 0.39 km<br/>\n                    <b>Track: </b> 0.59 km<br/>\n                    <b>FRP: </b> 0.95 MW<br/>\n                    <b>Brightness: </b> 314.13 K" }, "geometry": { "type": "Point", "coordinates": [ 122.69881, 63.86881 ] } },
{ "type": "Feature", "properties": { "sensor": "NOAA-20", "description": "<b>Latitude: </b> 53.2072<br/> \n                    <b>Longitude: </b> 143.23285<br/> \n                    <b>Detection Time: </b> 2026-10-03 15:29 UTC<br/> \n                    <b>Sensor: </b> NOAA-20 VIIRS<br/>\n                    <b>Confidence: </b> Nominal<br/> \n                    <b>Day/Night: </b> Night<br/>\n                    <b>Scan: </b> 0.55 km<br/>\n                    <b>Track: </b> 0.68 km<br/>\n                    <b>FRP: </b> 2.9 MW<br/>\n                    <b>Brightness: </b> 335.68 K" }, "geometry": { "type": "Point", "coordinates": [ 143.23285, 53.2072 ] } },
{ "type": "Feature", "properties": { "sensor": "NOAA-20", "description": "<b>Latitude: </b> 53.20545<br/> \n                    <b>Longitude: </b> 143.23624<br/> \n                    <b>Detection Time: </b> 2026-10-03 15:29 UTC<br/> \n                    <b>Sensor: </b> NOAA-20 VIIRS<br/>\n                    <b>Confidence: </b> Nominal<br/> \n                    <b>Day/Night: </b> Night<br/>\n                    <b>Scan: </b> 0.55 km<br/>\n                    <b>Track: </b> 0.68 km<br/>\n                    <b>FRP: </b> 3.81 MW<br/>\n                    <b>Brightness: </b> 331.49 K" }, "geometry": { "type": "Point", "coordinates": [ 143.23624, 53.20545 ] } },
{ "type": "Feature", "properties": { "sensor": "NOAA-20", "description": "<b>Latitude: </b> 52.51442<br/> \n                    <b>Longitude: </b> 143.17824<br/> \n                    <b>Detection Time: </b> 2026-10-03 15:29 UTC<br/> \n                    <b>Sensor: </b> NOAA-20 VIIRS<br/>\n                    <b>Confidence: </b> Nominal<br/> \n                    <b>Day/Night: </b> Night<br/>\n                    <b>Scan: </b> 0.55 km<br/>\n                    <b>Track: </b> 0.68 km<br/>\n                    <b>FRP: </b> 1.26 MW<br/>\n                    <b>Brightness: </b> 305.02 K" }, "geometry": { "type": "Point", "coordinates": [ 143.17824, 52.51442 ] } },
{ "type": "Feature", "properties": { "sensor": "NOAA-20", "description": "<b>Latitude: </b> 52.51242<br/> \n                    <b>Longitude: </b> 143.1792<br/> \n                    <b>Detection Time: </b> 2026-10-03 15:29 UTC<br/> \n                    <b>Sensor: </b> NOAA-20 VIIRS<br/>\n                    <b>Confidence: </b> Nominal<br/> \n                    <b>Day/Night: </b> Night<br/>\n                    <b>Scan: </b> 0.55 km<br/>\n                    <b>Track: </b> 0.68 km<br/>\n                    <b>FRP: </b> 1.08 MW<br/>\n                    <b>Brightness: </b> 305.22 K" }, "geometry": { "type": "Point", "coordinates": [ 143.1792, 52.51242 ] } },
{ "type": "Feature", "properties": { "sensor": "NOAA-20", "description": "<b>Latitude: </b> 46.62792<br/> \n                    <b>Longitude: </b> 142.89909<br/> \n                    <b>Detection Time: </b> 2026-10-03 15:29 UTC<br/> \n                    <b>Sensor: </b> NOAA-20 VIIRS<br/>\n                    <b>Confidence: </b> Nominal<br/> \n                    <b>Day/Night: </b> Night<br/>\n                    <b>Scan: </b> 0.54 km<br/>\n                    <b>Track: </b> 0.68 km<br/>\n                    <b>FRP: </b> 1.57 MW<br/>\n                    <b>Brightness: </b> 306.77 K" }, "geometry": { "type": "Point", "coordinates": [ 142.89909, 46.62792 ] } },
{ "type": "Feature", "properties": { "sensor": "NOAA-20", "description": "<b>Latitude: </b> 53.26424<br/> \n                    <b>Longitude: </b> 143.21602<br/> \n                    <b>Detection Time: </b> 2026-10-03 15:29 UTC<br/> \n                    <b>Sensor: </b> NOAA-20 VIIRS<br/>\n                    <b>Confidence: </b> Nominal<br/> \n                    <b>Day/Night: </b> Night<br/>\n                    <b>Scan: </b> 0.55 km<br/>\n                    <b>Track: </b> 0.68 km<br/>\n                    <b>FRP: </b> 0.5 MW<br/>\n                    <b>Brightness: </b> 296.08 K" }, "geometry": { "type": "Point", "coordinates": [ 143.21602, 53.26424 ] } },
{ "type": "Feature", "properties": { "sensor": "NOAA-21", "description": "<b>Latitude: </b> 46.62564<br/> \n                    <b>Longitude: </b> 142.90724<br/> \n                    <b>Detection Time: </b> 2026-10-03 16:16 UTC<br/> \n                    <b>Sensor: </b> NOAA-21 VIIRS<br/>\n                    <b>Confidence: </b> Nominal<br/> \n                    <b>Day/Night: </b> Night<br/>\n                    <b>Scan: </b> 0.44 km<br/>\n                    <b>Track: </b> 0.38 km<br/>\n                    <b>FRP: </b> 1.75 MW<br/>\n                    <b>Brightness: </b> 311.78 K" }, "geometry": { "type": "Point", "coordinates": [ 142.90724, 46.62564 ] } },
{ "type": "Feature", "properties": { "sensor": "NOAA-21", "description": "<b>Latitude: </b> 46.62913<br/> \n                    <b>Longitude: </b> 142.90819<br/> \n                    <b>Detection Time: </b> 2026-10-03 16:16 UTC<br/> \n                    <b>Sensor: </b> NOAA-21 VIIRS<br/>\n                    <b>Confidence: </b> Nominal<br/> \n                    <b>Day/Night: </b> Night<br/>\n                    <b>Scan: </b> 0.44 km<br/>\n                    <b>Track: </b> 0.38 km<br/>\n                    <b>FRP: </b> 1.75 MW<br/>\n                    <b>Brightness: </b> 306.27 K" }, "geometry": { "type": "Point", "coordinates": [ 142.90819, 46.62913 ] } },
{ "type": "Feature", "properties": { "sensor": "NOAA-21", "description": "<b>Latitude: </b> 52.51254<br/> \n                    <b>Longitude: </b> 143.18546<br/> \n                    <b>Detection Time: </b> 2026-10-03 16:13 UTC<br/> \n                    <b>Sensor: </b> NOAA-21 VIIRS<br/>\n                    <b>Confidence: </b> Nominal<br/> \n                    <b>Day/Night: </b> Night<br/>\n                    <b>Scan: </b> 0.5 km<br/>\n                    <b>Track: </b> 0.41 km<br/>\n                    <b>FRP: </b> 1.91 MW<br/>\n                    <b>Brightness: </b> 306.94 K" }, "geometry": { "type": "Point", "coordinates": [ 143.18546, 52.51254 ] } },
{ "type": "Feature", "properties": { "sensor": "NOAA-21", "description": "<b>Latitude: </b> 53.26317<br/> \n                    <b>Longitude: </b> 143.22234<br/> \n                    <b>Detection Time: </b> 2026-10-03 16:13 UTC<br/> \n                    <b>Sensor: </b> NOAA-21 VIIRS<br/>\n                    <b>Confidence: </b> Nominal<br/> \n                    <b>Day/Night: </b> Night<br/>\n                    <b>Scan: </b> 0.5 km<br/>\n                    <b>Track: </b> 0.41 km<br/>\n                    <b>FRP: </b> 2.35 MW<br/>\n                    <b>Brightness: </b> 313.13 K" }, "geometry": { "type": "Point", "coordinates": [ 143.22234, 53.26317 ] } },
{ "type": "Feature", "properties": { "sensor": "NOAA-21", "description": "<b>Latitude: </b> 53.26283<br/> \n                    <b>Longitude: </b> 143.22325<br/> \n                    <b>Detection Time: </b> 2026-10-03 16:13 UTC<br/> \n                    <b>Sensor: </b> NOAA-21 VIIRS<br/>\n                    <b>Confidence: </b> Nominal<br/> \n                    <b>Day/Night: </b> Night<br/>\n                    <b>Scan: </b> 0.5 km<br/>\n                    <b>Track: </b> 0.41 km<br/>\n                    <b>FRP: </b> 2.2 MW<br/>\n                    <b>Brightness: </b> 317.17 K" }, "geometry": { "type": "Point", "coordinates": [ 143.22325, 53.26283 ] } },
{ "type": "Feature", "properties": { "sensor": "NOAA-21", "description": "<b>Latitude: </b> 53.20374<br/> \n                    <b>Longitude: </b> 143.23776<br/> \n                    <b>Detection Time: </b> 2026-10-03 16:13 UTC<br/> \n                    <b>Sensor: </b> NOAA-21 VIIRS<br/>\n                    <b>Confidence: </b> Nominal<br/> \n                    <b>Day/Night: </b> Night<br/>\n                    <b>Scan: </b> 0.5 km<br/>\n                    <b>Track: </b> 0.41 km<br/>\n                    <b>FRP: </b> 6.72 MW<br/>\n                    <b>Brightness: </b> 327.13 K" }, "geometry": { "type": "Point", "coordinates": [ 143.23776, 53.20374 ] } },
{ "type": "Feature", "properties": { "sensor": "NOAA-21", "description": "<b>Latitude: </b> 52.51144<br/> \n                    <b>Longitude: </b> 143.1859<br/> \n                    <b>Detection Time: </b> 2026-10-03 16:13 UTC<br/> \n                    <b>Sensor: </b> NOAA-21 VIIRS<br/>\n                    <b>Confidence: </b> Nominal<br/> \n                    <b>Day/Night: </b> Night<br/>\n                    <b>Scan: </b> 0.5 km<br/>\n                    <b>Track: </b> 0.41 km<br/>\n                    <b>FRP: </b> 2.04 MW<br/>\n                    <b>Brightness: </b> 314.29 K" }, "geometry": { "type": "Point", "coordinates": [ 143.1859, 52.51144 ] } },
{ "type": "Feature", "properties": { "sensor": "NOAA-21", "description": "<b>Latitude: </b> 52.18478<br/> \n                    <b>Longitude: </b> 143.06746<br/> \n                    <b>Detection Time: </b> 2026-10-03 16:13 UTC<br/> \n                    <b>Sensor: </b> NOAA-21 VIIRS<br/>\n                    <b>Confidence: </b> Nominal<br/> \n                    <b>Day/Night: </b> Night<br/>\n                    <b>Scan: </b> 0.5 km<br/>\n                    <b>Track: </b> 0.41 km<br/>\n                    <b>FRP: </b> 1.42 MW<br/>\n                    <b>Brightness: </b> 308.87 K" }, "geometry": { "type": "Point", "coordinates": [ 143.06746, 52.18478 ] } },
{ "type": "Feature", "properties": { "sensor": "NOAA-21", "description": "<b>Latitude: </b> 52.14026<br/> \n                    <b>Longitude: </b> 143.0184<br/> \n                    <b>Detection Time: </b> 2026-10-03 16:13 UTC<br/> \n                    <b>Sensor: </b> NOAA-21 VIIRS<br/>\n                    <b>Confidence: </b> Nominal<br/> \n                    <b>Day/Night: </b> Night<br/>\n                    <b>Scan: </b> 0.5 km<br/>\n                    <b>Track: </b> 0.41 km<br/>\n                    <b>FRP: </b> 1.3 MW<br/>\n                    <b>Brightness: </b> 307.21 K" }, "geometry": { "type": "Point", "coordinates": [ 143.0184, 52.14026 ] } },
{ "type": "Feature", "properties": { "sensor": "NOAA-21", "description": "<b>Latitude: </b> 57.59833<br/> \n                    <b>Longitude: </b> 139.27383<br/> \n                    <b>Detection Time: </b> 2026-10-03 16:11 UTC<br/> \n                    <b>Sensor: </b> NOAA-21 VIIRS<br/>\n                    <b>Confidence: </b> Nominal<br/> \n                    <b>Day/Night: </b> Night<br/>\n                    <b>Scan: </b> 0.52 km<br/>\n                    <b>Track: </b> 0.5 km<br/>\n                    <b>FRP: </b> 2.52 MW<br/>\n                    <b>Brightness: </b> 310.25 K" }, "geometry": { "type": "Point", "coordinates": [ 139.27383, 57.59833 ] } }
]
}
