{
"type": "FeatureCollection",
"name": "footprints_0_6.geojson",
"crs": { "type": "name", "properties": { "name": "urn:ogc:def:crs:OGC:1.3:CRS84" } },
"features": [
{ "type": "Feature", "properties": { "sensor": "MODIS_C6.1", "description": "<b>Latitude: </b> 51.14072<br/> \n                    <b>Longitude: </b> 37.93292<br/> \n                    <b>Detection Time: </b> 2026-10-04 17:20 UTC<br/> \n                    <b>Sensor: </b> Terra MODIS<br/>\n                    <b>Confidence [0-100%]: </b> 31%<br/> \n                    <b>Day/Night: </b> Night<br/>\n                    <b>Scan: </b> 1.03 km<br/>\n                    <b>Track: </b> 1.02 km<br/>\n                    <b>FRP: </b> 8.49 MW<br/>\n                    <b>Brightness: </b> 300.6 K" }, "geometry": { "type": "Polygon", "coordinates": [ [ [ 37.92576, 51.14521 ], [ 37.94008, 51.14521 ], [ 37.94008, 51.13623 ], [ 37.92576, 51.13623 ], [ 37.92576, 51.14521 ] ] ] } },
{ "type": "Feature", "properties": { "sensor": "MODIS_C6.1", "description": "<b>Latitude: </b> 47.82413<br/> \n                    <b>Longitude: </b> 42.61826<br/> \n                    <b>Detection Time: </b> 2026-10-04 17:20 UTC<br/> \n                    <b>Sensor: </b> Terra MODIS<br/>\n                    <b>Confidence [0-100%]: </b> 100%<br/> \n                    <b>Day/Night: </b> Night<br/>\n                    <b>Scan: </b> 1.03 km<br/>\n                    <b>Track: </b> 1.01 km<br/>\n                    <b>FRP: </b> 23.91 MW<br/>\n                    <b>Brightness: </b> 320.1 K" }, "geometry": { "type": "Polygon", "coordinates": [ [ [ 42.61157, 47.82862 ], [ 42.62495, 47.82862 ], [ 42.62495, 47.81964 ], [ 42.61157, 47.81964 ], [ 42.61157, 47.82862 ] ] ] } },
{ "type": "Feature", "properties": { "sensor": "MODIS_C6.1", "description": "<b>Latitude: </b> 65.04669<br/> \n                    <b>Longitude: </b> 56.67287<br/> \n                    <b>Detection Time: </b> 2026-10-04 15:44 UTC<br/> \n                    <b>Sensor: </b> Terra MODIS<br/>\n                    <b>Confidence [0-100%]: </b> 36%<br/> \n                    <b>Day/Night: </b> Night<br/>\n                    <b>Scan: </b> 1 km<br/>\n                    <b>Track: </b> 1 km<br/>\n                    <b>FRP: </b> 10.03 MW<br/>\n                    <b>Brightness: </b> 300.97 K" }, "geometry": { "type": "Polygon", "coordinates": [ [ [ 56.66222, 65.05118 ], [ 56.68352, 65.05118 ], [ 56.68352, 65.0422 ], [ 56.66222, 65.0422 ], [ 56.66222, 65.05118 ] ] ] } },
{ "type": "Feature", "properties": { "sensor": "MODIS_C6.1", "description": "<b>Latitude: </b> 53.45643<br/> \n                    <b>Longitude: </b> 59.03429<br/> \n                    <b>Detection Time: </b> 2026-10-04 15:41 UTC<br/> \n                    <b>Sensor: </b> Terra MODIS<br/>\n                    <b>Confidence [0-100%]: </b> 100%<br/> \n                    <b>Day/Night: </b> Night<br/>\n                    <b>Scan: </b> 1.18 km<br/>\n                    <b>Track: </b> 1.08 km<br/>\n                    <b>FRP: </b> 30.44 MW<br/>\n                    <b>Brightness: </b> 320.14 K" }, "geometry": { "type": "Polygon", "coordinates": [ [ [ 59.02675, 53.46092 ], [ 59.04183, 53.46092 ], [ 59.04183, 53.45194 ], [ 59.02675, 53.45194 ], [ 59.02675, 53.46092 ] ] ] } },
{ "type": "Feature", "properties": { "sensor": "MODIS_C6.1", "description": "<b>Latitude: </b> 71.26553<br/> \n                    <b>Longitude: </b> 71.92295<br/> \n                    <b>Detection Time: </b> 2026-10-04 14:08 UTC<br/> \n                    <b>Sensor: </b> Terra MODIS<br/>\n                    <b>Confidence [0-100%]: </b> 54%<br/> \n                    <b>Day/Night: </b> Night<br/>\n                    <b>Scan: </b> 1.01 km<br/>\n                    <b>Track: </b> 1 km<br/>\n                    <b>FRP: </b> 10.5 MW<br/>\n                    <b>Brightness: </b> 303.17 K" }, "geometry": { "type": "Polygon", "coordinates": [ [ [ 71.90897, 71.27002 ], [ 71.93693, 71.27002 ], [ 71.93693, 71.26104 ], [ 71.90897, 71.26104 ], [ 71.90897, 71.27002 ] ] ] } },
{ "type": "Feature", "properties": { "sensor": "MODIS_C6.1", "description": "<b>Latitude: </b> 60.84356<br/> \n                    <b>Longitude: </b> 97.34348<br/> \n                    <b>Detection Time: </b> 2026-10-04 14:03 UTC<br/> \n                    <b>Sensor: </b> Terra MODIS<br/>\n                    <b>Confidence [0-100%]: </b> 15%<br/> \n                    <b>Day/Night: </b> Night<br/>\n                    <b>Scan: </b> 2.3 km<br/>\n                    <b>Track: </b> 1.47 km<br/>\n                    <b>FRP: </b> 32.61 MW<br/>\n                    <b>Brightness: </b> 300.07 K" }, "geometry": { "type": "Polygon", "coordinates": [ [ [ 97.33426, 60.84805 ], [ 97.3527, 60.84805 ], [ 97.3527, 60.83907 ], [ 97.33426, 60.83907 ], [ 97.33426, 60.84805 ] ] ] } },
{ "type": "Feature", "properties": { "sensor": "MODIS_C6.1", "description": "<b>Latitude: </b> 60.44098<br/> \n                    <b>Longitude: </b> 97.55927<br/> \n                    <b>Detection Time: </b> 2026-10-04 14:03 UTC<br/> \n                    <b>Sensor: </b> Terra MODIS<br/>\n                    <b>Confidence [0-100%]: </b> 73%<br/> \n                    <b>Day/Night: </b> Night<br/>\n                    <b>Scan: </b> 2.33 km<br/>\n                    <b>Track: </b> 1.48 km<br/>\n                    <b>FRP: </b> 49.16 MW<br/>\n                    <b>Brightness: </b> 308.02 K" }, "geometry": { "type": "Polygon", "coordinates": [ [ [ 97.55017, 60.44547 ], [ 97.56837, 60.44547 ], [ 97.56837, 60.43649 ], [ 97.55017, 60.43649 ], [ 97.55017, 60.44547 ] ] ] } },
{ "type": "Feature", "properties": { "sensor": "MODIS_C6.1", "description": "<b>Latitude: </b> 60.42167<br/> \n                    <b>Longitude: </b> 96.5174<br/> \n                    <b>Detection Time: </b> 2026-10-04 14:03 UTC<br/> \n                    <b>Sensor: </b> Terra MODIS<br/>\n                    <b>Confidence [0-100%]: </b> 44%<br/> \n                    <b>Day/Night: </b> Night<br/>\n                    <b>Scan: </b> 2.12 km<br/>\n                    <b>Track: </b> 1.41 km<br/>\n                    <b>FRP: </b> 30.07 MW<br/>\n                    <b>Brightness: </b> 301.78 K" }, "geometry": { "type": "Polygon", "coordinates": [ [ [ 96.5083, 60.42616 ], [ 96.5265, 60.42616 ], [ 96.5265, 60.41718 ], [ 96.5083, 60.41718 ], [ 96.5083, 60.42616 ] ] ] } },
{ "type": "Feature", "properties": { "sensor": "MODIS_C6.1", "description": "<b>Latitude: </b> 60.4342<br/> \n                    <b>Longitude: </b> 96.51469<br/> \n                    <b>Detection Time: </b> 2026-10-04 14:03 UTC<br/> \n                    <b>Sensor: </b> Terra MODIS<br/>\n                    <b>Confidence [0-100%]: </b> 100%<br/> \n                    <b>Day/Night: </b> Night<br/>\n                    <b>Scan: </b> 2.12 km<br/>\n                    <b>Track: </b> 1.41 km<br/>\n                    <b>FRP: </b> 73.51 MW<br/>\n                    <b>Brightness: </b> 321.27 K" }, "geometry": { "type": "Polygon", "coordinates": [ [ [ 96.50559, 60.43869 ], [ 96.52379, 60.43869 ], [ 96.52379, 60.42971 ], [ 96.50559, 60.42971 ], [ 96.50559, 60.43869 ] ] ] } },
{ "type": "Feature", "properties": { "sensor": "MODIS_C6.1", "description": "<b>Latitude: </b> 60.43383<br/> \n                    <b>Longitude: </b> 96.25273<br/> \n                    <b>Detection Time: </b> 2026-10-04 14:03 UTC<br/> \n                    <b>Sensor: </b> Terra MODIS<br/>\n                    <b>Confidence [0-100%]: </b> 100%<br/> \n                    <b>Day/Night: </b> Night<br/>\n                    <b>Scan: </b> 2.07 km<br/>\n                    <b>Track: </b> 1.4 km<br/>\n                    <b>FRP: </b> 117.16 MW<br/>\n                    <b>Brightness: </b> 334.27 K" }, "geometry": { "type": "Polygon", "coordinates": [ [ [ 96.24363, 60.43832 ], [ 96.26183, 60.43832 ], [ 96.26183, 60.42934 ], [ 96.24363, 60.42934 ], [ 96.24363, 60.43832 ] ] ] } },
{ "type": "Feature", "properties": { "sensor": "MODIS_C6.1", "description": "<b>Latitude: </b> 60.43515<br/> \n                    <b>Longitude: </b> 96.50954<br/> \n                    <b>Detection Time: </b> 2026-10-04 14:03 UTC<br/> \n                    <b>Sensor: </b> Terra MODIS<br/>\n                    <b>Confidence [0-100%]: </b> 97%<br/> \n                    <b>Day/Night: </b> Night<br/>\n                    <b>Scan: </b> 2.12 km<br/>\n                    <b>Track: </b> 1.41 km<br/>\n                    <b>FRP: </b> 64.95 MW<br/>\n                    <b>Brightness: </b> 318.7 K" }, "geometry": { "type": "Polygon", "coordinates": [ [ [ 96.50044, 60.43964 ], [ 96.51864, 60.43964 ], [ 96.51864, 60.43066 ], [ 96.50044, 60.43066 ], [ 96.50044, 60.43964 ] ] ] } },
{ "type": "Feature", "properties": { "sensor": "MODIS_C6.1", "description": "<b>Latitude: </b> 60.4357<br/> \n                    <b>Longitude: </b> 96.2468<br/> \n                    <b>Detection Time: </b> 2026-10-04 14:03 UTC<br/> \n                    <b>Sensor: </b> Terra MODIS<br/>\n                    <b>Confidence [0-100%]: </b> 100%<br/> \n                    <b>Day/Night: </b> Night<br/>\n                    <b>Scan: </b> 2.07 km<br/>\n                    <b>Track: </b> 1.4 km<br/>\n                    <b>FRP: </b> 113.56 MW<br/>\n                    <b>Brightness: </b> 333.22 K" }, "geometry": { "type": "Polygon", "coordinates": [ [ [ 96.2377, 60.44019 ], [ 96.2559, 60.44019 ], [ 96.2559, 60.43121 ], [ 96.2377, 60.43121 ], [ 96.2377, 60.44019 ] ] ] } },
{ "type": "Feature", "properties": { "sensor": "SUOMI-NPP", "description": "<b>Latitude: </b> 51.54472<br/> \n                    <b>Longitude: </b> 128.15134<br/> \n                    <b>Detection Time: </b> 2026-10-04 16:33 UTC<br/> \n                    <b>Sensor: </b> Suomi-NPP VIIRS<br/>\n                    <b>Confidence: </b> Nominal<br/> \n                    <b>Day/Night: </b> Night<br/>\n                    <b>Scan: </b> 0.6 km<br/>\n                    <b>Track: </b> 0.7 km<br/>\n                    <b>FRP: </b> 4.94 MW<br/>\n                    <b>Brightness: </b> 348.11 K" }, "geometry": { "type": "Polygon", "coordinates": [ [ [ 128.14863, 51.5464 ], [ 128.15405, 51.5464 ], [ 128.15405, 51.54304 ], [ 128.14863, 51.54304 ], [ 128.14863, 51.5464 ] ] ] } },
{ "type": "Feature", "properties": { "sensor": "SUOMI-NPP", "description": "<b>Latitude: </b> 46.62683<br/> \n                    <b>Longitude: </b> 142.90417<br/> \n                    <b>Detection Time: </b> 2026-10-04 16:33 UTC<br/> \n                    <b>Sensor: </b> Suomi-NPP VIIRS<br/>\n                    <b>Confidence: </b> Nominal<br/> \n                    <b>Day/Night: </b> Night<br/>\n                    <b>Scan: </b> 0.41 km<br/>\n                    <b>Track: </b> 0.37 km<br/>\n                    <b>FRP: </b> 1.69 MW<br/>\n                    <b>Brightness: </b> 298.32 K" }, "geometry": { "type": "Polygon", "coordinates": [ [ [ 142.90172, 46.62851 ], [ 142.90662, 46.62851 ], [ 142.90662, 46.62515 ], [ 142.90172, 46.62515 ], [ 142.90172, 46.62851 ] ] ] } },
{ "type": "Feature", "properties": { "sensor": "SUOMI-NPP", "description": "<b>Latitude: </b> 46.62611<br/> \n                    <b>Longitude: </b> 142.90955<br/> \n                    <b>Detection Time: </b> 2026-10-04 16:33 UTC<br/> \n                    <b>Sensor: </b> Suomi-NPP VIIRS<br/>\n                    <b>Confidence: </b> Nominal<br/> \n                    <b>Day/Night: </b> Night<br/>\n                    <b>Scan: </b> 0.41 km<br/>\n                    <b>Track: </b> 0.37 km<br/>\n                    <b>FRP: </b> 1.78 MW<br/>\n                    <b>Brightness: </b> 323.65 K" }, "geometry": { "type": "Polygon", "coordinates": [ [ [ 142.9071, 46.62779 ], [ 142.912, 46.62779 ], [ 142.912, 46.62443 ], [ 142.9071, 46.62443 ], [ 142.9071, 46.62779 ] ] ] } },
{ "type": "Feature", "properties": { "sensor": "SUOMI-NPP", "description": "<b>Latitude: </b> 46.62951<br/> \n                    <b>Longitude: </b> 142.91054<br/> \n                    <b>Detection Time: </b> 2026-10-04 16:33 UTC<br/> \n                    <b>Sensor: </b> Suomi-NPP VIIRS<br/>\n                    <b>Confidence: </b> Nominal<br/> \n                    <b>Day/Night: </b> Night<br/>\n                    <b>Scan: </b> 0.41 km<br/>\n                    <b>Track: </b> 0.37 km<br/>\n                    <b>FRP: </b> 1.7 MW<br/>\n                    <b>Brightness: </b> 310.39 K" }, "geometry": { "type": "Polygon", "coordinates": [ [ [ 142.90809, 46.63119 ], [ 142.91299, 46.63119 ], [ 142.91299, 46.62783 ], [ 142.90809, 46.62783 ], [ 142.90809, 46.63119 ] ] ] } },
{ "type": "Feature", "properties": { "sensor": "SUOMI-NPP", "description": "<b>Latitude: </b> 51.53817<br/> \n                    <b>Longitude: </b> 128.16071<br/> \n                    <b>Detection Time: </b> 2026-10-04 16:33 UTC<br/> \n                    <b>Sensor: </b> Suomi-NPP VIIRS<br/>\n                    <b>Confidence: </b> Nominal<br/> \n                    <b>Day/Night: </b> Night<br/>\n                    <b>Scan: </b> 0.6 km<br/>\n                    <b>Track: </b> 0.7 km<br/>\n                    <b>FRP: </b> 2.83 MW<br/>\n                    <b>Brightness: </b> 301.21 K" }, "geometry": { "type": "Polygon", "coordinates": [ [ [ 128.158, 51.53985 ], [ 128.16342, 51.53985 ], [ 128.16342, 51.53649 ], [ 128.158, 51.53649 ], [ 128.158, 51.53985 ] ] ] } },
{ "type": "Feature", "properties": { "sensor": "SUOMI-NPP", "description": "<b>Latitude: </b> 51.5381<br/> \n                    <b>Longitude: </b> 128.15132<br/> \n                    <b>Detection Time: </b> 2026-10-04 16:33 UTC<br/> \n                    <b>Sensor: </b> Suomi-NPP VIIRS<br/>\n                    <b>Confidence: </b> Nominal<br/> \n                    <b>Day/Night: </b> Night<br/>\n                    <b>Scan: </b> 0.6 km<br/>\n                    <b>Track: </b> 0.7 km<br/>\n                    <b>FRP: </b> 2.83 MW<br/>\n                    <b>Brightness: </b> 319.63 K" }, "geometry": { "type": "Polygon", "coordinates": [ [ [ 128.14861, 51.53978 ], [ 128.15403, 51.53978 ], [ 128.15403, 51.53642 ], [ 128.14861, 51.53642 ], [ 128.14861, 51.53978 ] ] ] } },
{ "type": "Feature", "properties": { "sensor": "SUOMI-NPP", "description": "<b>Latitude: </b> 51.5448<br/> \n                    <b>Longitude: </b> 128.16055<br/> \n                    <b>Detection Time: </b> 2026-10-04 16:33 UTC<br/> \n                    <b>Sensor: </b> Suomi-NPP VIIRS<br/>\n                    <b>Confidence: </b> Nominal<br/> \n                    <b>Day/Night: </b> Night<br/>\n                    <b>Scan: </b> 0.6 km<br/>\n                    <b>Track: </b> 0.7 km<br/>\n                    <b>FRP: </b> 4.94 MW<br/>\n                    <b>Brightness: </b> 315.4 K" }, "geometry": { "type": "Polygon", "coordinates": [ [ [ 128.15784, 51.54648 ], [ 128.16326, 51.54648 ], [ 128.16326, 51.54312 ], [ 128.15784, 51.54312 ], [ 128.15784, 51.54648 ] ] ] } },
{ "type": "Feature", "properties": { "sensor": "SUOMI-NPP", "description": "<b>Latitude: </b> 51.54135<br/> \n                    <b>Longitude: </b> 128.15544<br/> \n                    <b>Detection Time: </b> 2026-10-04 16:33 UTC<br/> \n                    <b>Sensor: </b> Suomi-NPP VIIRS<br/>\n                    <b>Confidence: </b> High<br/> \n                    <b>Day/Night: </b> Night<br/>\n                    <b>Scan: </b> 0.6 km<br/>\n                    <b>Track: </b> 0.7 km<br/>\n                    <b>FRP: </b> 10.35 MW<br/>\n                    <b>Brightness: </b> 367 K" }, "geometry": { "type": "Polygon", "coordinates": [ [ [ 128.15273, 51.54303 ], [ 128.15815, 51.54303 ], [ 128.15815, 51.53967 ], [ 128.15273, 51.53967 ], [ 128.15273, 51.54303 ] ] ] } },
{ "type": "Feature", "properties": { "sensor": "SUOMI-NPP", "description": "<b>Latitude: </b> 52.14158<br/> \n                    <b>Longitude: </b> 143.01611<br/> \n                    <b>Detection Time: </b> 2026-10-04 16:33 UTC<br/> \n                    <b>Sensor: </b> Suomi-NPP VIIRS<br/>\n                    <b>Confidence: </b> Nominal<br/> \n                    <b>Day/Night: </b> Night<br/>\n                    <b>Scan: </b> 0.46 km<br/>\n                    <b>Track: </b> 0.39 km<br/>\n                    <b>FRP: </b> 0.77 MW<br/>\n                    <b>Brightness: </b> 301.09 K" }, "geometry": { "type": "Polygon", "coordinates": [ [ [ 143.01337, 52.14326 ], [ 143.01885, 52.14326 ], [ 143.01885, 52.1399 ], [ 143.01337, 52.1399 ], [ 143.01337, 52.14326 ] ] ] } },
{ "type": "Feature", "properties": { "sensor": "SUOMI-NPP", "description": "<b>Latitude: </b> 52.18355<br/> \n                    <b>Longitude: </b> 143.07031<br/> \n                    <b>Detection Time: </b> 2026-10-04 16:33 UTC<br/> \n                    <b>Sensor: </b> Suomi-NPP VIIRS<br/>\n                    <b>Confidence: </b> Nominal<br/> \n                    <b>Day/Night: </b> Night<br/>\n                    <b>Scan: </b> 0.46 km<br/>\n                    <b>Track: </b> 0.39 km<br/>\n                    <b>FRP: </b> 1.19 MW<br/>\n                    <b>Brightness: </b> 306.9 K" }, "geometry": { "type": "Polygon", "coordinates": [ [ [ 143.06756, 52.18523 ], [ 143.07306, 52.18523 ], [ 143.07306, 52.18187 ], [ 143.06756, 52.18187 ], [ 143.06756, 52.18523 ] ] ] } },
{ "type": "Feature", "properties": { "sensor": "SUOMI-NPP", "description": "<b>Latitude: </b> 52.51204<br/> \n                    <b>Longitude: </b> 143.18443<br/> \n                    <b>Detection Time: </b> 2026-10-04 16:33 UTC<br/> \n                    <b>Sensor: </b> Suomi-NPP VIIRS<br/>\n                    <b>Confidence: </b> Nominal<br/> \n                    <b>Day/Night: </b> Night<br/>\n                    <b>Scan: </b> 0.46 km<br/>\n                    <b>Track: </b> 0.39 km<br/>\n                    <b>FRP: </b> 2.11 MW<br/>\n                    <b>Brightness: </b> 321.35 K" }, "geometry": { "type": "Polygon", "coordinates": [ [ [ 143.18166, 52.51372 ], [ 143.1872, 52.51372 ], [ 143.1872, 52.51036 ], [ 143.18166, 52.51036 ], [ 143.18166, 52.51372 ] ] ] } },
{ "type": "Feature", "properties": { "sensor": "SUOMI-NPP", "description": "<b>Latitude: </b> 53.20459<br/> \n                    <b>Longitude: </b> 143.2375<br/> \n                    <b>Detection Time: </b> 2026-10-04 16:33 UTC<br/> \n                    <b>Sensor: </b> Suomi-NPP VIIRS<br/>\n                    <b>Confidence: </b> Nominal<br/> \n                    <b>Day/Night: </b> Night<br/>\n                    <b>Scan: </b> 0.46 km<br/>\n                    <b>Track: </b> 0.39 km<br/>\n                    <b>FRP: </b> 5.47 MW<br/>\n                    <b>Brightness: </b> 326.87 K" }, "geometry": { "type": "Polygon", "coordinates": [ [ [ 143.23469, 53.20627 ], [ 143.24031, 53.20627 ], [ 143.24031, 53.20291 ], [ 143.23469, 53.20291 ], [ 143.23469, 53.20627 ] ] ] } },
{ "type": "Feature", "properties": { "sensor": "SUOMI-NPP", "description": "<b>Latitude: </b> 53.26616<br/> \n                    <b>Longitude: </b> 143.22105<br/> \n                    <b>Detection Time: </b> 2026-10-04 16:33 UTC<br/> \n                    <b>Sensor: </b> Suomi-NPP VIIRS<br/>\n                    <b>Confidence: </b> Nominal<br/> \n                    <b>Day/Night: </b> Night<br/>\n                    <b>Scan: </b> 0.46 km<br/>\n                    <b>Track: </b> 0.39 km<br/>\n                    <b>FRP: </b> 1.33 MW<br/>\n                    <b>Brightness: </b> 310.18 K" }, "geometry": { "type": "Polygon", "coordinates": [ [ [ 143.21823, 53.26784 ], [ 143.22387, 53.26784 ], [ 143.22387, 53.26448 ], [ 143.21823, 53.26448 ], [ 143.21823, 53.26784 ] ] ] } },
{ "type": "Feature", "properties": { "sensor": "SUOMI-NPP", "description": "<b>Latitude: </b> 54.62469<br/> \n                    <b>Longitude: </b> 160.31471<br/> \n                    <b>Detection Time: </b> 2026-10-04 16:30 UTC<br/> \n                    <b>Sensor: </b> Suomi-NPP VIIRS<br/>\n                    <b>Confidence: </b> Nominal<br/> \n                    <b>Day/Night: </b> Night<br/>\n                    <b>Scan: </b> 0.45 km<br/>\n                    <b>Track: </b> 0.47 km<br/>\n                    <b>FRP: </b> 3.61 MW<br/>\n                    <b>Brightness: </b> 313 K" }, "geometry": { "type": "Polygon", "coordinates": [ [ [ 160.3118, 54.62637 ], [ 160.31762, 54.62637 ], [ 160.31762, 54.62301 ], [ 160.3118, 54.62301 ], [ 160.3118, 54.62637 ] ] ] } },
{ "type": "Feature", "properties": { "sensor": "SUOMI-NPP", "description": "<b>Latitude: </b> 57.60058<br/> \n                    <b>Longitude: </b> 139.27177<br/> \n                    <b>Detection Time: </b> 2026-10-04 16:30 UTC<br/> \n                    <b>Sensor: </b> Suomi-NPP VIIRS<br/>\n                    <b>Confidence: </b> Nominal<br/> \n                    <b>Day/Night: </b> Night<br/>\n                    <b>Scan: </b> 0.47 km<br/>\n                    <b>Track: </b> 0.48 km<br/>\n                    <b>FRP: </b> 1.61 MW<br/>\n                    <b>Brightness: </b> 297.6 K" }, "geometry": { "type": "Polygon", "coordinates": [ [ [ 139.26863, 57.60226 ], [ 139.27491, 57.60226 ], [ 139.27491, 57.5989 ], [ 139.26863, 57.5989 ], [ 139.26863, 57.60226 ] ] ] } },
{ "type": "Feature", "properties": { "sensor": "SUOMI-NPP", "description": "<b>Latitude: </b> 54.61518<br/> \n                    <b>Longitude: </b> 160.31429<br/> \n                    <b>Detection Time: </b> 2026-10-04 16:30 UTC<br/> \n                    <b>Sensor: </b> Suomi-NPP VIIRS<br/>\n                    <b>Confidence: </b> Nominal<br/> \n                    <b>Day/Night: </b> Night<br/>\n                    <b>Scan: </b> 0.46 km<br/>\n                    <b>Track: </b> 0.47 km<br/>\n                    <b>FRP: </b> 2.96 MW<br/>\n                    <b>Brightness: </b> 316.98 K" }, "geometry": { "type": "Polygon", "coordinates": [ [ [ 160.31138, 54.61686 ], [ 160.3172, 54.61686 ], [ 160.3172, 54.6135 ], [ 160.31138, 54.6135 ], [ 160.31138, 54.61686 ] ] ] } },
{ "type": "Feature", "properties": { "sensor": "SUOMI-NPP", "description": "<b>Latitude: </b> 54.62092<br/> \n                    <b>Longitude: </b> 160.31078<br/> \n                    <b>Detection Time: </b> 2026-10-04 16:30 UTC<br/> \n                    <b>Sensor: </b> Suomi-NPP VIIRS<br/>\n                    <b>Confidence: </b> Nominal<br/> \n                    <b>Day/Night: </b> Night<br/>\n                    <b>Scan: </b> 0.45 km<br/>\n                    <b>Track: </b> 0.47 km<br/>\n                    <b>FRP: </b> 12.7 MW<br/>\n                    <b>Brightness: </b> 301 K" }, "geometry": { "type": "Polygon", "coordinates": [ [ [ 160.30787, 54.6226 ], [ 160.31369, 54.6226 ], [ 160.31369, 54.61924 ], [ 160.30787, 54.61924 ], [ 160.30787, 54.6226 ] ] ] } },
{ "type": "Feature", "properties": { "sensor": "NOAA-20", "description": "<b>Latitude: </b> 52.18335<br/> \n                    <b>Longitude: </b> 143.06543<br/> \n                    <b>Detection Time: </b> 2026-10-04 16:52 UTC<br/> \n                    <b>Sensor: </b> NOAA-20 VIIRS<br/>\n                    <b>Confidence: </b> Nominal<br/> \n                    <b>Day/Night: </b> Night<br/>\n                    <b>Scan: </b> 0.39 km<br/>\n                    <b>Track: </b> 0.36 km<br/>\n                    <b>FRP: </b> 1.05 MW<br/>\n                    <b>Brightness: </b> 315.34 K" }, "geometry": { "type": "Polygon", "coordinates": [ [ [ 143.06268, 52.18503 ], [ 143.06818, 52.18503 ], [ 143.06818, 52.18167 ], [ 143.06268, 52.18167 ], [ 143.06268, 52.18503 ] ] ] } },
{ "type": "Feature", "properties": { "sensor": "NOAA-20", "description": "<b>Latitude: </b> 52.14072<br/> \n                    <b>Longitude: </b> 143.01424<br/> \n                    <b>Detection Time: </b> 2026-10-04 16:52 UTC<br/> \n                    <b>Sensor: </b> NOAA-20 VIIRS<br/>\n                    <b>Confidence: </b> Nominal<br/> \n                    <b>Day/Night: </b> Night<br/>\n                    <b>Scan: </b> 0.39 km<br/>\n                    <b>Track: </b> 0.36 km<br/>\n                    <b>FRP: </b> 0.77 MW<br/>\n                    <b>Brightness: </b> 311.25 K" }, "geometry": { "type": "Polygon", "coordinates": [ [ [ 143.0115, 52.1424 ], [ 143.01698, 52.1424 ], [ 143.01698, 52.13904 ], [ 143.0115, 52.13904 ], [ 143.0115, 52.1424 ] ] ] } },
{ "type": "Feature", "properties": { "sensor": "NOAA-20", "description": "<b>Latitude: </b> 51.54354<br/> \n                    <b>Longitude: </b> 128.15797<br/> \n                    <b>Detection Time: </b> 2026-10-04 16:52 UTC<br/> \n                    <b>Sensor: </b> NOAA-20 VIIRS<br/>\n                    <b>Confidence: </b> Nominal<br/> \n                    <b>Day/Night: </b> Night<br/>\n                    <b>Scan: </b> 0.62 km<br/>\n                    <b>Track: </b> 0.54 km<br/>\n                    <b>FRP: </b> 18.51 MW<br/>\n                    <b>Brightness: </b> 339.22 K" }, "geometry": { "type": "Polygon", "coordinates": [ [ [ 128.15526, 51.54522 ], [ 128.16068, 51.54522 ], [ 128.16068, 51.54186 ], [ 128.15526, 51.54186 ], [ 128.15526, 51.54522 ] ] ] } },
{ "type": "Feature", "properties": { "sensor": "NOAA-20", "description": "<b>Latitude: </b> 51.50157<br/> \n                    <b>Longitude: </b> 128.20238<br/> \n                    <b>Detection Time: </b> 2026-10-04 16:52 UTC<br/> \n                    <b>Sensor: </b> NOAA-20 VIIRS<br/>\n                    <b>Confidence: </b> Nominal<br/> \n                    <b>Day/Night: </b> Night<br/>\n                    <b>Scan: </b> 0.62 km<br/>\n                    <b>Track: </b> 0.54 km<br/>\n                    <b>FRP: </b> 0.65 MW<br/>\n                    <b>Brightness: </b> 295.64 K" }, "geometry": { "type": "Polygon", "coordinates": [ [ [ 128.19967, 51.50325 ], [ 128.20509, 51.50325 ], [ 128.20509, 51.49989 ], [ 128.19967, 51.49989 ], [ 128.19967, 51.50325 ] ] ] } },
{ "type": "Feature", "properties": { "sensor": "NOAA-20", "description": "<b>Latitude: </b> 46.63025<br/> \n                    <b>Longitude: </b> 142.91162<br/> \n                    <b>Detection Time: </b> 2026-10-04 16:52 UTC<br/> \n                    <b>Sensor: </b> NOAA-20 VIIRS<br/>\n                    <b>Confidence: </b> Nominal<br/> \n                    <b>Day/Night: </b> Night<br/>\n                    <b>Scan: </b> 0.44 km<br/>\n                    <b>Track: </b> 0.38 km<br/>\n                    <b>FRP: </b> 3.58 MW<br/>\n                    <b>Brightness: </b> 316.89 K" }, "geometry": { "type": "Polygon", "coordinates": [ [ [ 142.90917, 46.63193 ], [ 142.91407, 46.63193 ], [ 142.91407, 46.62857 ], [ 142.90917, 46.62857 ], [ 142.90917, 46.63193 ] ] ] } },
{ "type": "Feature", "properties": { "sensor": "NOAA-20", "description": "<b>Latitude: </b> 46.62682<br/> \n                    <b>Longitude: </b> 142.91026<br/> \n                    <b>Detection Time: </b> 2026-10-04 16:52 UTC<br/> \n                    <b>Sensor: </b> NOAA-20 VIIRS<br/>\n                    <b>Confidence: </b> Nominal<br/> \n                    <b>Day/Night: </b> Night<br/>\n                    <b>Scan: </b> 0.44 km<br/>\n                    <b>Track: </b> 0.38 km<br/>\n                    <b>FRP: </b> 3.58 MW<br/>\n                    <b>Brightness: </b> 329.8 K" }, "geometry": { "type": "Polygon", "coordinates": [ [ [ 142.90781, 46.6285 ], [ 142.91271, 46.6285 ], [ 142.91271, 46.62514 ], [ 142.90781, 46.62514 ], [ 142.90781, 46.6285 ] ] ] } },
{ "type": "Feature", "properties": { "sensor": "NOAA-20", "description": "<b>Latitude: </b> 53.20502<br/> \n                    <b>Longitude: </b> 143.24152<br/> \n                    <b>Detection Time: </b> 2026-10-04 16:50 UTC<br/> \n                    <b>Sensor: </b> NOAA-20 VIIRS<br/>\n                    <b>Confidence: </b> Nominal<br/> \n                    <b>Day/Night: </b> Night<br/>\n                    <b>Scan: </b> 0.39 km<br/>\n                    <b>Track: </b> 0.36 km<br/>\n                    <b>FRP: </b> 4.14 MW<br/>\n                    <b>Brightness: </b> 336.36 K" }, "geometry": { "type": "Polygon", "coordinates": [ [ [ 143.23871, 53.2067 ], [ 143.24433, 53.2067 ], [ 143.24433, 53.20334 ], [ 143.23871, 53.20334 ], [ 143.23871, 53.2067 ] ] ] } },
{ "type": "Feature", "properties": { "sensor": "NOAA-20", "description": "<b>Latitude: </b> 57.60093<br/> \n                    <b>Longitude: </b> 139.27103<br/> \n                    <b>Detection Time: </b> 2026-10-04 16:50 UTC<br/> \n                    <b>Sensor: </b> NOAA-20 VIIRS<br/>\n                    <b>Confidence: </b> Nominal<br/> \n                    <b>Day/Night: </b> Night<br/>\n                    <b>Scan: </b> 0.44 km<br/>\n                    <b>Track: </b> 0.38 km<br/>\n                    <b>FRP: </b> 1.72 MW<br/>\n                    <b>Brightness: </b> 316.3 K" }, "geometry": { "type": "Polygon", "coordinates": [ [ [ 139.26789, 57.60261 ], [ 139.27417, 57.60261 ], [ 139.27417, 57.59925 ], [ 139.26789, 57.59925 ], [ 139.26789, 57.60261 ] ] ] } },
{ "type": "Feature", "properties": { "sensor": "NOAA-20", "description": "<b>Latitude: </b> 53.26365<br/> \n                    <b>Longitude: </b> 143.22163<br/> \n                    <b>Detection Time: </b> 2026-10-04 16:50 UTC<br/> \n                    <b>Sensor: </b> NOAA-20 VIIRS<br/>\n                    <b>Confidence: </b> Nominal<br/> \n                    <b>Day/Night: </b> Night<br/>\n                    <b>Scan: </b> 0.39 km<br/>\n                    <b>Track: </b> 0.36 km<br/>\n                    <b>FRP: </b> 2.29 MW<br/>\n                    <b>Brightness: </b> 324.26 K" }, "geometry": { "type": "Polygon", "coordinates": [ [ [ 143.21881, 53.26533 ], [ 143.22445, 53.26533 ], [ 143.22445, 53.26197 ], [ 143.21881, 53.26197 ], [ 143.21881, 53.26533 ] ] ] } },
{ "type": "Feature", "properties": { "sensor": "NOAA-20", "description": "<b>Latitude: </b> 52.51334<br/> \n                    <b>Longitude: </b> 143.18452<br/> \n                    <b>Detection Time: </b> 2026-10-04 16:50 UTC<br/> \n                    <b>Sensor: </b> NOAA-20 VIIRS<br/>\n                    <b>Confidence: </b> Nominal<br/> \n                    <b>Day/Night: </b> Night<br/>\n                    <b>Scan: </b> 0.39 km<br/>\n                    <b>Track: </b> 0.36 km<br/>\n                    <b>FRP: </b> 1.37 MW<br/>\n                    <b>Brightness: </b> 321.13 K" }, "geometry": { "type": "Polygon", "coordinates": [ [ [ 143.18175, 52.51502 ], [ 143.18729, 52.51502 ], [ 143.18729, 52.51166 ], [ 143.18175, 52.51166 ], [ 143.18175, 52.51502 ] ] ] } },
{ "type": "Feature", "properties": { "sensor": "NOAA-20", "description": "<b>Latitude: </b> 52.5101<br/> \n                    <b>Longitude: </b> 143.18301<br/> \n                    <b>Detection Time: </b> 2026-10-04 16:50 UTC<br/> \n                    <b>Sensor: </b> NOAA-20 VIIRS<br/>\n                    <b>Confidence: </b> Nominal<br/> \n                    <b>Day/Night: </b> Night<br/>\n                    <b>Scan: </b> 0.39 km<br/>\n                    <b>Track: </b> 0.36 km<br/>\n                    <b>FRP: </b> 0.77 MW<br/>\n                    <b>Brightness: </b> 296.85 K" }, "geometry": { "type": "Polygon", "coordinates": [ [ [ 143.18024, 52.51178 ], [ 143.18578, 52.51178 ], [ 143.18578, 52.50842 ], [ 143.18024, 52.50842 ], [ 143.18024, 52.51178 ] ] ] } },
{ "type": "Feature", "properties": { "sensor": "NOAA-20", "description": "<b>Latitude: </b> 54.62492<br/> \n                    <b>Longitude: </b> 160.30569<br/> \n                    <b>Detection Time: </b> 2026-10-04 15:09 UTC<br/> \n                    <b>Sensor: </b> NOAA-20 VIIRS<br/>\n                    <b>Confidence: </b> Nominal<br/> \n                    <b>Day/Night: </b> Night<br/>\n                    <b>Scan: </b> 0.54 km<br/>\n                    <b>Track: </b> 0.42 km<br/>\n                    <b>FRP: </b> 4.75 MW<br/>\n                    <b>Brightness: </b> 325.51 K" }, "geometry": { "type": "Polygon", "coordinates": [ [ [ 160.30278, 54.6266 ], [ 160.3086, 54.6266 ], [ 160.3086, 54.62324 ], [ 160.30278, 54.62324 ], [ 160.30278, 54.6266 ] ] ] } },
{ "type": "Feature", "properties": { "sensor": "NOAA-21", "description": "<b>Latitude: </b> 46.62426<br/> \n                    <b>Longitude: </b> 142.90483<br/> \n                    <b>Detection Time: </b> 2026-10-04 15:56 UTC<br/> \n                    <b>Sensor: </b> NOAA-21 VIIRS<br/>\n                    <b>Confidence: </b> Nominal<br/> \n                    <b>Day/Night: </b> Night<br/>\n                    <b>Scan: </b> 0.45 km<br/>\n                    <b>Track: </b> 0.47 km<br/>\n                    <b>FRP: </b> 3.05 MW<br/>\n                    <b>Brightness: </b> 338.12 K" }, "geometry": { "type": "Polygon", "coordinates": [ [ [ 142.90238, 46.62594 ], [ 142.90728, 46.62594 ], [ 142.90728, 46.62258 ], [ 142.90238, 46.62258 ], [ 142.90238, 46.62594 ] ] ] } },
{ "type": "Feature", "properties": { "sensor": "NOAA-21", "description": "<b>Latitude: </b> 46.62807<br/> \n                    <b>Longitude: </b> 142.91151<br/> \n                    <b>Detection Time: </b> 2026-10-04 15:56 UTC<br/> \n                    <b>Sensor: </b> NOAA-21 VIIRS<br/>\n                    <b>Confidence: </b> Nominal<br/> \n                    <b>Day/Night: </b> Night<br/>\n                    <b>Scan: </b> 0.45 km<br/>\n                    <b>Track: </b> 0.47 km<br/>\n                    <b>FRP: </b> 2.31 MW<br/>\n                    <b>Brightness: </b> 302.87 K" }, "geometry": { "type": "Polygon", "coordinates": [ [ [ 142.90906, 46.62975 ], [ 142.91396, 46.62975 ], [ 142.91396, 46.62639 ], [ 142.90906, 46.62639 ], [ 142.90906, 46.62975 ] ] ] } },
{ "type": "Feature", "properties": { "sensor": "NOAA-21", "description": "<b>Latitude: </b> 46.62854<br/> \n                    <b>Longitude: </b> 142.90562<br/> \n                    <b>Detection Time: </b> 2026-10-04 15:56 UTC<br/> \n                    <b>Sensor: </b> NOAA-21 VIIRS<br/>\n                    <b>Confidence: </b> Nominal<br/> \n                    <b>Day/Night: </b> Night<br/>\n                    <b>Scan: </b> 0.45 km<br/>\n                    <b>Track: </b> 0.47 km<br/>\n                    <b>FRP: </b> 3.05 MW<br/>\n                    <b>Brightness: </b> 295.16 K" }, "geometry": { "type": "Polygon", "coordinates": [ [ [ 142.90317, 46.63022 ], [ 142.90807, 46.63022 ], [ 142.90807, 46.62686 ], [ 142.90317, 46.62686 ], [ 142.90317, 46.63022 ] ] ] } },
{ "type": "Feature", "properties": { "sensor": "NOAA-21", "description": "<b>Latitude: </b> 52.18202<br/> \n                    <b>Longitude: </b> 143.06964<br/> \n                    <b>Detection Time: </b> 2026-10-04 15:54 UTC<br/> \n                    <b>Sensor: </b> NOAA-21 VIIRS<br/>\n                    <b>Confidence: </b> Nominal<br/> \n                    <b>Day/Night: </b> Night<br/>\n                    <b>Scan: </b> 0.5 km<br/>\n                    <b>Track: </b> 0.49 km<br/>\n                    <b>FRP: </b> 1.11 MW<br/>\n                    <b>Brightness: </b> 311.85 K" }, "geometry": { "type": "Polygon", "coordinates": [ [ [ 143.06689, 52.1837 ], [ 143.07239, 52.1837 ], [ 143.07239, 52.18034 ], [ 143.06689, 52.18034 ], [ 143.06689, 52.1837 ] ] ] } },
{ "type": "Feature", "properties": { "sensor": "NOAA-21", "description": "<b>Latitude: </b> 52.51277<br/> \n                    <b>Longitude: </b> 143.18158<br/> \n                    <b>Detection Time: </b> 2026-10-04 15:54 UTC<br/> \n                    <b>Sensor: </b> NOAA-21 VIIRS<br/>\n                    <b>Confidence: </b> Nominal<br/> \n                    <b>Day/Night: </b> Night<br/>\n                    <b>Scan: </b> 0.5 km<br/>\n                    <b>Track: </b> 0.49 km<br/>\n                    <b>FRP: </b> 2.38 MW<br/>\n                    <b>Brightness: </b> 313.45 K" }, "geometry": { "type": "Polygon", "coordinates": [ [ [ 143.17881, 52.51445 ], [ 143.18435, 52.51445 ], [ 143.18435, 52.51109 ], [ 143.17881, 52.51109 ], [ 143.17881, 52.51445 ] ] ] } },
{ "type": "Feature", "properties": { "sensor": "NOAA-21", "description": "<b>Latitude: </b> 53.20063<br/> \n                    <b>Longitude: </b> 143.24014<br/> \n                    <b>Detection Time: </b> 2026-10-04 15:54 UTC<br/> \n                    <b>Sensor: </b> NOAA-21 VIIRS<br/>\n                    <b>Confidence: </b> Nominal<br/> \n                    <b>Day/Night: </b> Night<br/>\n                    <b>Scan: </b> 0.51 km<br/>\n                    <b>Track: </b> 0.49 km<br/>\n                    <b>FRP: </b> 4.81 MW<br/>\n                    <b>Brightness: </b> 327.75 K" }, "geometry": { "type": "Polygon", "coordinates": [ [ [ 143.23733, 53.20231 ], [ 143.24295, 53.20231 ], [ 143.24295, 53.19895 ], [ 143.23733, 53.19895 ], [ 143.23733, 53.20231 ] ] ] } },
{ "type": "Feature", "properties": { "sensor": "NOAA-21", "description": "<b>Latitude: </b> 53.20517<br/> \n                    <b>Longitude: </b> 143.24089<br/> \n                    <b>Detection Time: </b> 2026-10-04 15:54 UTC<br/> \n                    <b>Sensor: </b> NOAA-21 VIIRS<br/>\n                    <b>Confidence: </b> Nominal<br/> \n                    <b>Day/Night: </b> Night<br/>\n                    <b>Scan: </b> 0.51 km<br/>\n                    <b>Track: </b> 0.49 km<br/>\n                    <b>FRP: </b> 2.95 MW<br/>\n                    <b>Brightness: </b> 311.9 K" }, "geometry": { "type": "Polygon", "coordinates": [ [ [ 143.23808, 53.20685 ], [ 143.2437, 53.20685 ], [ 143.2437, 53.20349 ], [ 143.23808, 53.20349 ], [ 143.23808, 53.20685 ] ] ] } },
{ "type": "Feature", "properties": { "sensor": "NOAA-21", "description": "<b>Latitude: </b> 53.2616<br/> \n                    <b>Longitude: </b> 143.21927<br/> \n                    <b>Detection Time: </b> 2026-10-04 15:54 UTC<br/> \n                    <b>Sensor: </b> NOAA-21 VIIRS<br/>\n                    <b>Confidence: </b> Nominal<br/> \n                    <b>Day/Night: </b> Night<br/>\n                    <b>Scan: </b> 0.51 km<br/>\n                    <b>Track: </b> 0.49 km<br/>\n                    <b>FRP: </b> 0.85 MW<br/>\n                    <b>Brightness: </b> 296.29 K" }, "geometry": { "type": "Polygon", "coordinates": [ [ [ 143.21645, 53.26328 ], [ 143.22209, 53.26328 ], [ 143.22209, 53.25992 ], [ 143.21645, 53.25992 ], [ 143.21645, 53.26328 ] ] ] } },
{ "type": "Feature", "properties": { "sensor": "NOAA-21", "description": "<b>Latitude: </b> 53.26615<br/> \n                    <b>Longitude: </b> 143.21997<br/> \n                    <b>Detection Time: </b> 2026-10-04 15:54 UTC<br/> \n                    <b>Sensor: </b> NOAA-21 VIIRS<br/>\n                    <b>Confidence: </b> Nominal<br/> \n                    <b>Day/Night: </b> Night<br/>\n                    <b>Scan: </b> 0.51 km<br/>\n                    <b>Track: </b> 0.49 km<br/>\n                    <b>FRP: </b> 0.85 MW<br/>\n                    <b>Brightness: </b> 301.26 K" }, "geometry": { "type": "Polygon", "coordinates": [ [ [ 143.21715, 53.26783 ], [ 143.22279, 53.26783 ], [ 143.22279, 53.26447 ], [ 143.21715, 53.26447 ], [ 143.21715, 53.26783 ] ] ] } },
{ "type": "Feature", "properties": { "sensor": "NOAA-21", "description": "<b>Latitude: </b> 53.26203<br/> \n                    <b>Longitude: </b> 143.21838<br/> \n                    <b>Detection Time: </b> 2026-10-04 15:54 UTC<br/> \n                    <b>Sensor: </b> NOAA-21 VIIRS<br/>\n                    <b>Confidence: </b> Nominal<br/> \n                    <b>Day/Night: </b> Night<br/>\n                    <b>Scan: </b> 0.51 km<br/>\n                    <b>Track: </b> 0.49 km<br/>\n                    <b>FRP: </b> 2.11 MW<br/>\n                    <b>Brightness: </b> 311.08 K" }, "geometry": { "type": "Polygon", "coordinates": [ [ [ 143.21556, 53.26371 ], [ 143.2212, 53.26371 ], [ 143.2212, 53.26035 ], [ 143.21556, 53.26035 ], [ 143.21556, 53.26371 ] ] ] } },
{ "type": "Feature", "properties": { "sensor": "NOAA-21", "description": "<b>Latitude: </b> 52.13948<br/> \n                    <b>Longitude: </b> 143.01813<br/> \n                    <b>Detection Time: </b> 2026-10-04 15:54 UTC<br/> \n                    <b>Sensor: </b> NOAA-21 VIIRS<br/>\n                    <b>Confidence: </b> Nominal<br/> \n                    <b>Day/Night: </b> Night<br/>\n                    <b>Scan: </b> 0.51 km<br/>\n                    <b>Track: </b> 0.49 km<br/>\n                    <b>FRP: </b> 0.64 MW<br/>\n                    <b>Brightness: </b> 298.79 K" }, "geometry": { "type": "Polygon", "coordinates": [ [ [ 143.01539, 52.14116 ], [ 143.02087, 52.14116 ], [ 143.02087, 52.1378 ], [ 143.01539, 52.1378 ], [ 143.01539, 52.14116 ] ] ] } },
{ "type": "Feature", "properties": { "sensor": "NOAA-21", "description": "<b>Latitude: </b> 52.51154<br/> \n                    <b>Longitude: </b> 143.18315<br/> \n                    <b>Detection Time: </b> 2026-10-04 15:54 UTC<br/> \n                    <b>Sensor: </b> NOAA-21 VIIRS<br/>\n                    <b>Confidence: </b> Nominal<br/> \n                    <b>Day/Night: </b> Night<br/>\n                    <b>Scan: </b> 0.5 km<br/>\n                    <b>Track: </b> 0.49 km<br/>\n                    <b>FRP: </b> 1.76 MW<br/>\n                    <b>Brightness: </b> 308.61 K" }, "geometry": { "type": "Polygon", "coordinates": [ [ [ 143.18038, 52.51322 ], [ 143.18592, 52.51322 ], [ 143.18592, 52.50986 ], [ 143.18038, 52.50986 ], [ 143.18038, 52.51322 ] ] ] } }
]
}
